{"type": "FeatureCollection", "features": [ {"type": "Feature", "properties": {"norad_id": 41774, "name": "SKYSAT-C3", "group": "resource", "lat": -52.61588824752939, "lon": 21.705297197145168, "alt_km": 442.30598920554894, "timestamp": "2025-12-04T09:47:37.180139+00:00", "meta": {"OBJECT_NAME": "SKYSAT-C3", "OBJECT_ID": "2016-058E", "EPOCH": "2025-12-04T02:14:46.367808", "MEAN_MOTION": 15.43936527, "ECCENTRICITY": 0.0001371, "INCLINATION": 96.9308, "RA_OF_ASC_NODE": 12.2453, "ARG_OF_PERICENTER": 99.1498, "MEAN_ANOMALY": 260.9907, "EPHEMERIS_TYPE": 0, "CLASSIFICATION_TYPE": "U", "NORAD_CAT_ID": 41774, "ELEMENT_SET_NO": 999, "REV_AT_EPOCH": 51592, "BSTAR": 0.00075719, "MEAN_MOTION_DOT": 0.0003446, "MEAN_MOTION_DDOT": 0}, "tle": {"line1": "1 41774U 16058E   25338.09359222  .00034460  00000+0  75719-3 0  9994", "line2": "2 41774  96.9308  12.2453 0001371  99.1498 260.9907 15.43936527515929"}}, "geometry": {"type": "Point", "coordinates": [21.705297197145168, -52.61588824752939]}}, {"type": "Feature", "properties": {"norad_id": 41785, "name": "ALSAT 1B", "group": "resource", "lat": 15.19773735624885, "lon": 172.6863399554451, "alt_km": 649.4872275057423, "timestamp": "2025-12-04T09:47:37.180150+00:00", "meta": {"OBJECT_NAME": "ALSAT 1B", "OBJECT_ID": "2016-059C", "EPOCH": "2025-12-04T05:47:11.812416", "MEAN_MOTION": 14.72062063, "ECCENTRICITY": 0.0010422, "INCLINATION": 97.7819, "RA_OF_ASC_NODE": 350.3976, "ARG_OF_PERICENTER": 127.8885, "MEAN_ANOMALY": 232.3267, "EPHEMERIS_TYPE": 0, "CLASSIFICATION_TYPE": "U", "NORAD_CAT_ID": 41785, "ELEMENT_SET_NO": 999, "REV_AT_EPOCH": 49189, "BSTAR": 0.00015579, "MEAN_MOTION_DOT": 9.33e-06, "MEAN_MOTION_DDOT": 0}, "tle": {"line1": "1 41785U 16059C   25338.24110894  .00000933  00000+0  15579-3 0  9990", "line2": "2 41785  97.7819 350.3976 0010422 127.8885 232.3267 14.72062063491896"}}, "geometry": {"type": "Point", "coordinates": [172.6863399554451, 15.19773735624885]}}, {"type": "Feature", "properties": {"norad_id": 41787, "name": "PATHFINDER 1", "group": "resource", "lat": 24.886912995594813, "lon": -22.083999378798797, "alt_km": 665.6984013893025, "timestamp": "2025-12-04T09:47:37.180160+00:00", "meta": {"OBJECT_NAME": "PATHFINDER 1", "OBJECT_ID": "2016-059E", "EPOCH": "2025-12-03T23:51:34.293024", "MEAN_MOTION": 14.6729787, "ECCENTRICITY": 0.0029965, "INCLINATION": 97.8138, "RA_OF_ASC_NODE": 341.1737, "ARG_OF_PERICENTER": 107.7101, "MEAN_ANOMALY": 252.7379, "EPHEMERIS_TYPE": 0, "CLASSIFICATION_TYPE": "U", "NORAD_CAT_ID": 41787, "ELEMENT_SET_NO": 999, "REV_AT_EPOCH": 49108, "BSTAR": 0.00027413, "MEAN_MOTION_DOT": 1.51e-05, "MEAN_MOTION_DDOT": 0}, "tle": {"line1": "1 41787U 16059E   25337.99414691  .00001510  00000+0  27413-3 0  9997", "line2": "2 41787  97.8138 341.1737 0029965 107.7101 252.7379 14.67297870491087"}}, "geometry": {"type": "Point", "coordinates": [-22.083999378798797, 24.886912995594813]}}, {"type": "Feature", "properties": {"norad_id": 41790, "name": "SCATSAT 1", "group": "resource", "lat": 29.385255086235976, "lon": 30.34688414073875, "alt_km": 653.5110631607804, "timestamp": "2025-12-04T09:47:37.180170+00:00", "meta": {"OBJECT_NAME": "SCATSAT 1", "OBJECT_ID": "2016-059H", "EPOCH": "2025-12-04T03:09:47.806848", "MEAN_MOTION": 14.78889586, "ECCENTRICITY": 0.0055809, "INCLINATION": 98.1477, "RA_OF_ASC_NODE": 34.6947, "ARG_OF_PERICENTER": 155.3473, "MEAN_ANOMALY": 205.0424, "EPHEMERIS_TYPE": 0, "CLASSIFICATION_TYPE": "U", "NORAD_CAT_ID": 41790, "ELEMENT_SET_NO": 999, "REV_AT_EPOCH": 7275, "BSTAR": 0.00049552, "MEAN_MOTION_DOT": 3.692e-05, "MEAN_MOTION_DDOT": 0}, "tle": {"line1": "1 41790U 16059H   25338.13180332  .00003692  00000+0  49552-3 0  9991", "line2": "2 41790  98.1477  34.6947 0055809 155.3473 205.0424 14.78889586 72759"}}, "geometry": {"type": "Point", "coordinates": [30.34688414073875, 29.385255086235976]}}, {"type": "Feature", "properties": {"norad_id": 41875, "name": "GOKTURK 1A", "group": "resource", "lat": -57.55589681717115, "lon": 37.867517214596184, "alt_km": 692.1954510664054, "timestamp": "2025-12-04T09:47:37.180180+00:00", "meta": {"OBJECT_NAME": "GOKTURK 1A", "OBJECT_ID": "2016-073A", "EPOCH": "2025-12-04T03:46:54.449760", "MEAN_MOTION": 14.62731164, "ECCENTRICITY": 0.0001229, "INCLINATION": 98.1431, "RA_OF_ASC_NODE": 230.6373, "ARG_OF_PERICENTER": 90.7511, "MEAN_ANOMALY": 269.3831, "EPHEMERIS_TYPE": 0, "CLASSIFICATION_TYPE": "U", "NORAD_CAT_ID": 41875, "ELEMENT_SET_NO": 999, "REV_AT_EPOCH": 48031, "BSTAR": 0.00038979, "MEAN_MOTION_DOT": 1.939e-05, "MEAN_MOTION_DDOT": 0}, "tle": {"line1": "1 41875U 16073A   25338.15757465  .00001939  00000+0  38979-3 0  9993", "line2": "2 41875  98.1431 230.6373 0001229  90.7511 269.3831 14.62731164480317"}}, "geometry": {"type": "Point", "coordinates": [37.867517214596184, -57.55589681717115]}}, {"type": "Feature", "properties": {"norad_id": 41877, "name": "RESOURCESAT-2A", "group": "resource", "lat": 76.87851390431197, "lon": 6.801839697458108, "alt_km": 813.3679934486045, "timestamp": "2025-12-04T09:47:37.180190+00:00", "meta": {"OBJECT_NAME": "RESOURCESAT-2A", "OBJECT_ID": "2016-074A", "EPOCH": "2025-12-04T04:21:00.527904", "MEAN_MOTION": 14.21593978, "ECCENTRICITY": 0.0001161, "INCLINATION": 98.7767, "RA_OF_ASC_NODE": 48.0868, "ARG_OF_PERICENTER": 297.5914, "MEAN_ANOMALY": 62.5145, "EPHEMERIS_TYPE": 0, "CLASSIFICATION_TYPE": "U", "NORAD_CAT_ID": 41877, "ELEMENT_SET_NO": 999, "REV_AT_EPOCH": 46659, "BSTAR": 0.00018121, "MEAN_MOTION_DOT": 3.53e-06, "MEAN_MOTION_DDOT": 0}, "tle": {"line1": "1 41877U 16074A   25338.18125611  .00000353  00000+0  18121-3 0  9997", "line2": "2 41877  98.7767  48.0868 0001161 297.5914  62.5145 14.21593978466595"}}, "geometry": {"type": "Point", "coordinates": [6.801839697458108, 76.87851390431197]}}, {"type": "Feature", "properties": {"norad_id": 41948, "name": "CARTOSAT-2D", "group": "resource", "lat": 43.691051355067565, "lon": 28.861039050907358, "alt_km": 507.0909804742587, "timestamp": "2025-12-04T09:47:37.180201+00:00", "meta": {"OBJECT_NAME": "CARTOSAT-2D", "OBJECT_ID": "2017-008A", "EPOCH": "2025-12-04T00:06:57.621312", "MEAN_MOTION": 15.19353382, "ECCENTRICITY": 0.00048626, "INCLINATION": 97.4402, "RA_OF_ASC_NODE": 35.6355, "ARG_OF_PERICENTER": 195.6689, "MEAN_ANOMALY": 164.4396, "EPHEMERIS_TYPE": 0, "CLASSIFICATION_TYPE": "U", "NORAD_CAT_ID": 41948, "ELEMENT_SET_NO": 999, "REV_AT_EPOCH": 48794, "BSTAR": 3.196892e-06, "MEAN_MOTION_DOT": 0, "MEAN_MOTION_DDOT": 0}, "tle": {"line1": "1 41948U 17008A   25338.00483358  .00000000  00000+0  31969-5 0  9996", "line2": "2 41948  97.4402  35.6355 0004862 195.6689 164.4396 15.19353382487940"}}, "geometry": {"type": "Point", "coordinates": [28.861039050907358, 43.691051355067565]}}, {"type": "Feature", "properties": {"norad_id": 42063, "name": "SENTINEL-2B", "group": "resource", "lat": 46.37303682586605, "lon": -119.92383325270154, "alt_km": 784.285776100578, "timestamp": "2025-12-04T09:47:37.180211+00:00", "meta": {"OBJECT_NAME": "SENTINEL-2B", "OBJECT_ID": "2017-013A", "EPOCH": "2025-12-03T23:06:17.614368", "MEAN_MOTION": 14.30810479, "ECCENTRICITY": 0.00011191, "INCLINATION": 98.5726, "RA_OF_ASC_NODE": 50.5316, "ARG_OF_PERICENTER": 98.0031, "MEAN_ANOMALY": 262.1279, "EPHEMERIS_TYPE": 0, "CLASSIFICATION_TYPE": "U", "NORAD_CAT_ID": 42063, "ELEMENT_SET_NO": 999, "REV_AT_EPOCH": 45672, "BSTAR": 0.00013119099, "MEAN_MOTION_DOT": 3e-06, "MEAN_MOTION_DDOT": 0}, "tle": {"line1": "1 42063U 17013A   25337.96270387  .00000300  00000+0  13119-3 0  9999", "line2": "2 42063  98.5726  50.5316 0001119  98.0031 262.1279 14.30810479456727"}}, "geometry": {"type": "Point", "coordinates": [-119.92383325270154, 46.37303682586605]}}, {"type": "Feature", "properties": {"norad_id": 42767, "name": "CARTOSAT-2E", "group": "resource", "lat": -45.788047755999, "lon": 43.84138458139522, "alt_km": 513.7621324783768, "timestamp": "2025-12-04T09:47:37.180221+00:00", "meta": {"OBJECT_NAME": "CARTOSAT-2E", "OBJECT_ID": "2017-036C", "EPOCH": "2025-12-04T03:40:25.781952", "MEAN_MOTION": 15.19184702, "ECCENTRICITY": 0.0002295, "INCLINATION": 97.4574, "RA_OF_ASC_NODE": 35.8518, "ARG_OF_PERICENTER": 282.3699, "MEAN_ANOMALY": 77.7278, "EPHEMERIS_TYPE": 0, "CLASSIFICATION_TYPE": "U", "NORAD_CAT_ID": 42767, "ELEMENT_SET_NO": 999, "REV_AT_EPOCH": 46853, "BSTAR": 0.0005057, "MEAN_MOTION_DOT": 0.00010578, "MEAN_MOTION_DDOT": 0}, "tle": {"line1": "1 42767U 17036C   25338.15307618  .00010578  00000+0  50570-3 0  9995", "line2": "2 42767  97.4574  35.8518 0002295 282.3699  77.7278 15.19184702468533"}}, "geometry": {"type": "Point", "coordinates": [43.84138458139522, -45.788047755999]}}, {"type": "Feature", "properties": {"norad_id": 42920, "name": "FORMOSAT-5", "group": "resource", "lat": -68.80455644006949, "lon": -149.06881418643994, "alt_km": 727.5297242493807, "timestamp": "2025-12-04T09:47:37.180232+00:00", "meta": {"OBJECT_NAME": "FORMOSAT-5", "OBJECT_ID": "2017-049A", "EPOCH": "2025-12-03T21:03:26.443296", "MEAN_MOTION": 14.50997002, "ECCENTRICITY": 0.00102922, "INCLINATION": 98.2462, "RA_OF_ASC_NODE": 52.3719, "ARG_OF_PERICENTER": 325.1836, "MEAN_ANOMALY": 34.8685, "EPHEMERIS_TYPE": 0, "CLASSIFICATION_TYPE": "U", "NORAD_CAT_ID": 42920, "ELEMENT_SET_NO": 999, "REV_AT_EPOCH": 43835, "BSTAR": 0.00013803205, "MEAN_MOTION_DOT": 5.02e-06, "MEAN_MOTION_DDOT": 0}, "tle": {"line1": "1 42920U 17049A   25337.87738939  .00000502  00000+0  13803-3 0  9996", "line2": "2 42920  98.2462  52.3719 0010292 325.1836  34.8685 14.50997002438353"}}, "geometry": {"type": "Point", "coordinates": [-149.06881418643994, -68.80455644006949]}}]}